{
    "links": {
        "self": "http://www.neowsapp.com/rest/v1/neo/3757286?api_key=iIulBulltgU6a56xZRHN4H3l9WmuAYTsLGpBGhQ2"
    },
    "id": "3757286",
    "neo_reference_id": "3757286",
    "name": "(2016 PQ38)",
    "designation": "2016 PQ38",
    "nasa_jpl_url": "http://ssd.jpl.nasa.gov/sbdb.cgi?sstr=3757286",
    "absolute_magnitude_h": 23.7,
    "estimated_diameter": {
        "kilometers": {
            "estimated_diameter_min": 0.0483676488,
            "estimated_diameter_max": 0.1081533507
        },
        "meters": {
            "estimated_diameter_min": 48.3676488219,
            "estimated_diameter_max": 108.1533506775
        },
        "miles": {
            "estimated_diameter_min": 0.0300542543,
            "estimated_diameter_max": 0.0672033557
        },
        "feet": {
            "estimated_diameter_min": 158.6865169607,
            "estimated_diameter_max": 354.8338390368
        }
    },
    "is_potentially_hazardous_asteroid": false,
    "close_approach_data": [
        {
            "close_approach_date": "2016-08-04",
            "close_approach_date_full": "2016-Aug-04 15:02",
            "epoch_date_close_approach": 1470322920000,
            "relative_velocity": {
                "kilometers_per_second": "12.8580469887",
                "kilometers_per_hour": "46288.9691592433",
                "miles_per_hour": "28762.1653089754"
            },
            "miss_distance": {
                "astronomical": "0.0850925625",
                "lunar": "33.1010068125",
                "kilometers": "12729666.102841875",
                "miles": "7909847.731792875"
            },
            "orbiting_body": "Earth"
        }
    ],
    "orbital_data": {
        "orbit_id": "5",
        "orbit_determination_date": "2020-09-22 06:43:44",
        "first_observation_date": "2016-08-09",
        "last_observation_date": "2016-08-16",
        "data_arc_in_days": 7,
        "observations_used": 35,
        "orbit_uncertainty": "8",
        "minimum_orbit_intersection": ".0826581",
        "jupiter_tisserand_invariant": "5.152",
        "epoch_osculation": "2457610.5",
        "eccentricity": ".09842306539528477",
        "semi_major_axis": "1.215564612789789",
        "inclination": "25.09130744839171",
        "ascending_node_longitude": "313.1696877276424",
        "orbital_period": "489.5144312478895",
        "perihelion_distance": "1.095925017412985",
        "perihelion_argument": "350.8680067382415",
        "aphelion_distance": "1.335204208166592",
        "perihelion_time": "2457594.584073809688",
        "mean_anomaly": "11.70493260822946",
        "mean_motion": ".7354226495065198",
        "equinox": "J2000",
        "orbit_class": {
            "orbit_class_type": "AMO",
            "orbit_class_description": "Near-Earth asteroid orbits similar to that of 1221 Amor",
            "orbit_class_range": "1.017 AU < q (perihelion) < 1.3 AU"
        }
    },
    "is_sentry_object": false
}